[{"OBJECT_NAME":"OBJECT AA","OBJECT_ID":"2025-313AA","EPOCH":"2026-03-09T22:17:16.257696","MEAN_MOTION":15.21952623,"ECCENTRICITY":0.0014221,"INCLINATION":97.4008,"RA_OF_ASC_NODE":145.2054,"ARG_OF_PERICENTER":358.5401,"MEAN_ANOMALY":1.5791,"EPHEMERIS_TYPE":0,"CLASSIFICATION_TYPE":"U","NORAD_CAT_ID":67272,"ELEMENT_SET_NO":999,"REV_AT_EPOCH":1085,"BSTAR":0.00056563346,"MEAN_MOTION_DOT":0.00012874,"MEAN_MOTION_DDOT":0},{"OBJECT_NAME":"OBJECT AK","OBJECT_ID":"2025-313AK","EPOCH":"2026-03-09T22:15:06.103872","MEAN_MOTION":15.21477682,"ECCENTRICITY":0.00118476,"INCLINATION":97.3947,"RA_OF_ASC_NODE":145.1584,"ARG_OF_PERICENTER":356.5328,"MEAN_ANOMALY":3.5824,"EPHEMERIS_TYPE":0,"CLASSIFICATION_TYPE":"U","NORAD_CAT_ID":67281,"ELEMENT_SET_NO":999,"REV_AT_EPOCH":1085,"BSTAR":0.00031140912,"MEAN_MOTION_DOT":6.947e-5,"MEAN_MOTION_DDOT":0}]
